{
  "type": "FeatureCollection",
  "features": [
    {
      "type": "Feature",
      "properties": {
        "norad_id": 36550,
        "name": "COSMOS 2251 DEB",
        "group": "cosmos-2251-debris",
        "lat": -4.480614891083235,
        "lon": 165.7792524519836,
        "alt_km": 847.3649764336724,
        "timestamp": "2025-12-26T22:28:06.182978+00:00",
        "meta_object_name": "COSMOS 2251 DEB",
        "meta_object_id": "1993-036BDL",
        "meta_epoch": "2025-12-23T05:19:51.847104",
        "meta_mean_motion": 14.27229725,
        "meta_eccentricity": 0.00778519,
        "meta_inclination": 74.0443,
        "meta_ra_of_asc_node": 173.7801,
        "meta_arg_of_pericenter": 222.1192,
        "meta_mean_anomaly": 137.3958,
        "meta_ephemeris_type": 0,
        "meta_classification_type": "U",
        "meta_norad_cat_id": 36550,
        "meta_element_set_no": 999,
        "meta_rev_at_epoch": 84745,
        "meta_bstar": 0.00062346046,
        "meta_mean_motion_dot": 1.548e-05,
        "meta_mean_motion_ddot": 0,
        "tle_line1": "1 36550U 93036BDL 25357.22212786  .00001548  00000+0  62346-3 0  9993",
        "tle_line2": "2 36550  74.0443 173.7801 0077851 222.1192 137.3958 14.27229725847452"
      },
      "geometry": {
        "type": "Point",
        "coordinates": [
          165.7792524519836,
          -4.480614891083235
        ]
      }
    },
    {
      "type": "Feature",
      "properties": {
        "norad_id": 36551,
        "name": "COSMOS 2251 DEB",
        "group": "cosmos-2251-debris",
        "lat": -47.53388615691031,
        "lon": -32.95010219418706,
        "alt_km": 530.485835789158,
        "timestamp": "2025-12-26T22:28:06.182988+00:00",
        "meta_object_name": "COSMOS 2251 DEB",
        "meta_object_id": "1993-036BDM",
        "meta_epoch": "2025-12-23T08:25:21.362880",
        "meta_mean_motion": 15.02881194,
        "meta_eccentricity": 0.00509794,
        "meta_inclination": 73.8872,
        "meta_ra_of_asc_node": 352.8451,
        "meta_arg_of_pericenter": 300.1612,
        "meta_mean_anomaly": 59.4529,
        "meta_ephemeris_type": 0,
        "meta_classification_type": "U",
        "meta_norad_cat_id": 36551,
        "meta_element_set_no": 999,
        "meta_rev_at_epoch": 67091,
        "meta_bstar": 0.0013038883,
        "meta_mean_motion_dot": 0.00017997,
        "meta_mean_motion_ddot": 0,
        "tle_line1": "1 36551U 93036BDM 25357.35094170  .00017997  00000+0  13039-2 0  9992",
        "tle_line2": "2 36551  73.8872 352.8451 0050979 300.1612  59.4529 15.02881194670914"
      },
      "geometry": {
        "type": "Point",
        "coordinates": [
          -32.95010219418706,
          -47.53388615691031
        ]
      }
    },
    {
      "type": "Feature",
      "properties": {
        "norad_id": 36557,
        "name": "COSMOS 2251 DEB",
        "group": "cosmos-2251-debris",
        "lat": 41.55714057527899,
        "lon": -96.50355196163052,
        "alt_km": 635.6152300826552,
        "timestamp": "2025-12-26T22:28:06.182999+00:00",
        "meta_object_name": "COSMOS 2251 DEB",
        "meta_object_id": "1993-036BDT",
        "meta_epoch": "2025-12-25T13:22:56.127648",
        "meta_mean_motion": 14.7886677,
        "meta_eccentricity": 0.0022188,
        "meta_inclination": 73.9787,
        "meta_ra_of_asc_node": 100.973,
        "meta_arg_of_pericenter": 254.7091,
        "meta_mean_anomaly": 105.1632,
        "meta_ephemeris_type": 0,
        "meta_classification_type": "U",
        "meta_norad_cat_id": 36557,
        "meta_element_set_no": 999,
        "meta_rev_at_epoch": 34086,
        "meta_bstar": 0.0038011,
        "meta_mean_motion_dot": 0.00028197,
        "meta_mean_motion_ddot": 0,
        "tle_line1": "1 36557U 93036BDT 25359.55759407  .00028197  00000+0  38011-2 0  9994",
        "tle_line2": "2 36557  73.9787 100.9730 0022188 254.7091 105.1632 14.78866770340861"
      },
      "geometry": {
        "type": "Point",
        "coordinates": [
          -96.50355196163052,
          41.55714057527899
        ]
      }
    },
    {
      "type": "Feature",
      "properties": {
        "norad_id": 36558,
        "name": "COSMOS 2251 DEB",
        "group": "cosmos-2251-debris",
        "lat": -26.789629087123394,
        "lon": 119.35822816477194,
        "alt_km": 717.0585113775333,
        "timestamp": "2025-12-26T22:28:06.183009+00:00",
        "meta_object_name": "COSMOS 2251 DEB",
        "meta_object_id": "1993-036BDU",
        "meta_epoch": "2025-12-26T01:09:05.124672",
        "meta_mean_motion": 14.55457241,
        "meta_eccentricity": 0.00125611,
        "meta_inclination": 74.043,
        "meta_ra_of_asc_node": 129.3457,
        "meta_arg_of_pericenter": 218.5387,
        "meta_mean_anomaly": 141.4881,
        "meta_ephemeris_type": 0,
        "meta_classification_type": "U",
        "meta_norad_cat_id": 36558,
        "meta_element_set_no": 999,
        "meta_rev_at_epoch": 85462,
        "meta_bstar": 0.00097354493,
        "meta_mean_motion_dot": 4.212e-05,
        "meta_mean_motion_ddot": 0,
        "tle_line1": "1 36558U 93036BDU 25360.04797598  .00004212  00000+0  97354-3 0  9992",
        "tle_line2": "2 36558  74.0430 129.3457 0012561 218.5387 141.4881 14.55457241854627"
      },
      "geometry": {
        "type": "Point",
        "coordinates": [
          119.35822816477194,
          -26.789629087123394
        ]
      }
    },
    {
      "type": "Feature",
      "properties": {
        "norad_id": 36559,
        "name": "COSMOS 2251 DEB",
        "group": "cosmos-2251-debris",
        "lat": -26.36816589950362,
        "lon": -22.557698063793566,
        "alt_km": 769.8613397438294,
        "timestamp": "2025-12-26T22:28:06.183019+00:00",
        "meta_object_name": "COSMOS 2251 DEB",
        "meta_object_id": "1993-036BDV",
        "meta_epoch": "2025-12-25T22:30:17.877024",
        "meta_mean_motion": 13.95341265,
        "meta_eccentricity": 0.0262607,
        "meta_inclination": 74.131,
        "meta_ra_of_asc_node": 347.2543,
        "meta_arg_of_pericenter": 16.1375,
        "meta_mean_anomaly": 344.792,
        "meta_ephemeris_type": 0,
        "meta_classification_type": "U",
        "meta_norad_cat_id": 36559,
        "meta_element_set_no": 999,
        "meta_rev_at_epoch": 81278,
        "meta_bstar": 0.0044342,
        "meta_mean_motion_dot": 7.996e-05,
        "meta_mean_motion_ddot": 0,
        "tle_line1": "1 36559U 93036BDV 25359.93770691  .00007996  00000+0  44342-2 0  9994",
        "tle_line2": "2 36559  74.1310 347.2543 0262607  16.1375 344.7920 13.95341265812784"
      },
      "geometry": {
        "type": "Point",
        "coordinates": [
          -22.557698063793566,
          -26.36816589950362
        ]
      }
    },
    {
      "type": "Feature",
      "properties": {
        "norad_id": 36614,
        "name": "COSMOS 2251 DEB",
        "group": "cosmos-2251-debris",
        "lat": -57.555445595340565,
        "lon": -5.751514364511694,
        "alt_km": 688.4128903800174,
        "timestamp": "2025-12-26T22:28:06.183029+00:00",
        "meta_object_name": "COSMOS 2251 DEB",
        "meta_object_id": "1993-036BEC",
        "meta_epoch": "2025-12-25T19:03:45.124128",
        "meta_mean_motion": 14.60436705,
        "meta_eccentricity": 0.00155454,
        "meta_inclination": 74.0219,
        "meta_ra_of_asc_node": 149.6407,
        "meta_arg_of_pericenter": 219.5991,
        "meta_mean_anomaly": 140.404,
        "meta_ephemeris_type": 0,
        "meta_classification_type": "U",
        "meta_norad_cat_id": 36614,
        "meta_element_set_no": 999,
        "meta_rev_at_epoch": 65803,
        "meta_bstar": 0.0017518768,
        "meta_mean_motion_dot": 8.483e-05,
        "meta_mean_motion_ddot": 0,
        "tle_line1": "1 36614U 93036BEC 25359.79427227  .00008483  00000+0  17519-2 0  9992",
        "tle_line2": "2 36614  74.0219 149.6407 0015545 219.5991 140.4040 14.60436705658033"
      },
      "geometry": {
        "type": "Point",
        "coordinates": [
          -5.751514364511694,
          -57.555445595340565
        ]
      }
    },
    {
      "type": "Feature",
      "properties": {
        "norad_id": 36622,
        "name": "COSMOS 2251 DEB",
        "group": "cosmos-2251-debris",
        "lat": 36.70131294053167,
        "lon": 129.97871704724005,
        "alt_km": 679.0902090000973,
        "timestamp": "2025-12-26T22:28:06.183040+00:00",
        "meta_object_name": "COSMOS 2251 DEB",
        "meta_object_id": "1993-036BEL",
        "meta_epoch": "2025-12-24T01:59:12.142752",
        "meta_mean_motion": 14.76299213,
        "meta_eccentricity": 0.00689018,
        "meta_inclination": 74.0149,
        "meta_ra_of_asc_node": 123.2338,
        "meta_arg_of_pericenter": 256.4441,
        "meta_mean_anomaly": 102.9052,
        "meta_ephemeris_type": 0,
        "meta_classification_type": "U",
        "meta_norad_cat_id": 36622,
        "meta_element_set_no": 999,
        "meta_rev_at_epoch": 66917,
        "meta_bstar": 0.00077654532,
        "meta_mean_motion_dot": 5.567e-05,
        "meta_mean_motion_ddot": 0,
        "tle_line1": "1 36622U 93036BEL 25358.08277943  .00005567  00000+0  77655-3 0  9998",
        "tle_line2": "2 36622  74.0149 123.2338 0068901 256.4441 102.9052 14.76299213669170"
      },
      "geometry": {
        "type": "Point",
        "coordinates": [
          129.97871704724005,
          36.70131294053167
        ]
      }
    }
  ]
}